{
  "norad_id": 62446,
  "name": "STARLINK-32726",
  "history": [
    {
      "epoch": "2026-03-28T20:24:28.925856Z",
      "apogee_km": 475.8435878213477,
      "perigee_km": 474.5702365224661,
      "latitude_deg": 1.534236427996877e-05,
      "longitude_deg": 113.79872291033249,
      "height_km": 475.92620843360106,
      "semi_major_axis_km": 6853.343912171907,
      "eccentricity": 9.29e-05,
      "inclination_deg": 53.1583,
      "raan_deg": 246.1841,
      "arg_perigee_deg": 73.6612,
      "mean_anomaly_deg": 286.4491,
      "mean_motion_rev_day": 15.30202732
    }
  ]
}