{"fetched_at":"2026-03-29T16:36:15Z","count":15609,"tles":[{"name":"STARLINK-32726","line1":"1 62446U 24251Q   26087.85033479  .00030145  00000+0  10257-2 0  9997","line2":"2 62446  53.1583 246.1841 0000929  73.6612 286.4491 15.30202732 70578","category":"Starlink"}]}